[
    {
        "Altitude(m)": 610405.3486183371,
        "Argument of Periapsis(deg)": 0.0,
        "Eccentricity": 0.0,
        "Inclination(deg)": 60.0,
        "Latitude(deg)": 52.11134216276395,
        "Longitude(deg)": 112.47746402815841,
        "Mean Anomaly(deg)": 114.5455,
        "RAAN(deg)": 80.0,
        "Satellite Name": "Test1 359",
        "Satellite Number": 359,
        "Semi-Major Axis(m)": 6980739.136638005,
        "Time(s)": 0
    },
    {
        "Altitude(m)": 610321.9214987414,
        "Argument of Periapsis(deg)": 0.00010418945913296404,
        "Eccentricity": 0.0,
        "Inclination(deg)": 60.0,
        "Latitude(deg)": 51.74605665433028,
        "Longitude(deg)": 113.24635844529129,
        "Mean Anomaly(deg)": 115.16560614546184,
        "RAAN(deg)": 79.99957995086025,
        "Satellite Name": "Test1 359",
        "Satellite Number": 359,
        "Semi-Major Axis(m)": 6980739.136638005,
        "Time(s)": 10
    },
    {
        "Altitude(m)": 610237.1302213044,
        "Argument of Periapsis(deg)": 0.0002083789182659281,
        "Eccentricity": 0.0,
        "Inclination(deg)": 60.0,
        "Latitude(deg)": 51.375252066264025,
        "Longitude(deg)": 114.00220025917184,
        "Mean Anomaly(deg)": 115.78571229092368,
        "RAAN(deg)": 79.99915990172052,
        "Satellite Name": "Test1 359",
        "Satellite Number": 359,
        "Semi-Major Axis(m)": 6980739.136638005,
        "Time(s)": 20
    },
    {
        "Altitude(m)": 610151.024966867,
        "Argument of Periapsis(deg)": 0.00031256837739889213,
        "Eccentricity": 0.0,
        "Inclination(deg)": 60.0,
        "Latitude(deg)": 50.99908698378908,
        "Longitude(deg)": 114.74518260055652,
        "Mean Anomaly(deg)": 116.4058184363855,
        "RAAN(deg)": 79.99873985258077,
        "Satellite Name": "Test1 359",
        "Satellite Number": 359,
        "Semi-Major Axis(m)": 6980739.136638005,
        "Time(s)": 30
    },
    {
        "Altitude(m)": 610063.6567787718,
        "Argument of Periapsis(deg)": 0.0004167578365318562,
        "Eccentricity": 0.0,
        "Inclination(deg)": 60.0,
        "Latitude(deg)": 50.617716238158046,
        "Longitude(deg)": 115.47550630199748,
        "Mean Anomaly(deg)": 117.02592458184733,
        "RAAN(deg)": 79.99831980344103,
        "Satellite Name": "Test1 359",
        "Satellite Number": 359,
        "Semi-Major Axis(m)": 6980739.136638005,
        "Time(s)": 40
    },
    {
        "Altitude(m)": 609975.0775382516,
        "Argument of Periapsis(deg)": 0.0005209472956648203,
        "Eccentricity": 0.0,
        "Inclination(deg)": 60.0,
        "Latitude(deg)": 50.231290881521794,
        "Longitude(deg)": 116.19337783918692,
        "Mean Anomaly(deg)": 117.64603072730915,
        "RAAN(deg)": 79.99789975430129,
        "Satellite Name": "Test1 359",
        "Satellite Number": 359,
        "Semi-Major Axis(m)": 6980739.136638005,
        "Time(s)": 50
    },
    {
        "Altitude(m)": 609885.3399393663,
        "Argument of Periapsis(deg)": 0.0006251367547977843,
        "Eccentricity": 0.0,
        "Inclination(deg)": 60.0,
        "Latitude(deg)": 49.83995817645954,
        "Longitude(deg)": 116.89900885596109,
        "Mean Anomaly(deg)": 118.26613687277099,
        "RAAN(deg)": 79.99747970516155,
        "Satellite Name": "Test1 359",
        "Satellite Number": 359,
        "Semi-Major Axis(m)": 6980739.136638005,
        "Time(s)": 60
    },
    {
        "Altitude(m)": 609794.497463524,
        "Argument of Periapsis(deg)": 0.0007293262139307483,
        "Eccentricity": 0.0,
        "Inclination(deg)": 60.0,
        "Latitude(deg)": 49.44386159874009,
        "Longitude(deg)": 117.59261575856351,
        "Mean Anomaly(deg)": 118.8862430182328,
        "RAAN(deg)": 79.9970596560218,
        "Satellite Name": "Test1 359",
        "Satellite Number": 359,
        "Semi-Major Axis(m)": 6980739.136638005,
        "Time(s)": 70
    },
    {
        "Altitude(m)": 609702.6043535684,
        "Argument of Periapsis(deg)": 0.0008335156730637124,
        "Eccentricity": 0.0,
        "Inclination(deg)": 60.0,
        "Latitude(deg)": 49.04314085195812,
        "Longitude(deg)": 118.2744178643539,
        "Mean Anomaly(deg)": 119.50634916369464,
        "RAAN(deg)": 79.99663960688207,
        "Satellite Name": "Test1 359",
        "Satellite Number": 359,
        "Semi-Major Axis(m)": 6980739.136638005,
        "Time(s)": 80
    },
    {
        "Altitude(m)": 609609.7155875099,
        "Argument of Periapsis(deg)": 0.0009377051321966765,
        "Eccentricity": 0.0,
        "Inclination(deg)": 60.0,
        "Latitude(deg)": 48.637931892762126,
        "Longitude(deg)": 118.94463712844694,
        "Mean Anomaly(deg)": 120.12645530915646,
        "RAAN(deg)": 79.99621955774232,
        "Satellite Name": "Test1 359",
        "Satellite Number": 359,
        "Semi-Major Axis(m)": 6980739.136638005,
        "Time(s)": 90
    },
    {
        "Altitude(m)": 609515.8868518363,
        "Argument of Periapsis(deg)": 0.0010418945913296407,
        "Eccentricity": 0.0,
        "Inclination(deg)": 60.0,
        "Latitude(deg)": 48.22836696547251,
        "Longitude(deg)": 119.60349793287978,
        "Mean Anomaly(deg)": 120.74656145461832,
        "RAAN(deg)": 79.99579950860256,
        "Satellite Name": "Test1 359",
        "Satellite Number": 359,
        "Semi-Major Axis(m)": 6980739.136638005,
        "Time(s)": 100
    },
    {
        "Altitude(m)": 609421.174514446,
        "Argument of Periapsis(deg)": 0.0011460840504626045,
        "Eccentricity": 0.0,
        "Inclination(deg)": 60.0,
        "Latitude(deg)": 47.814574644967564,
        "Longitude(deg)": 120.25122542271001,
        "Mean Anomaly(deg)": 121.36666760008015,
        "RAAN(deg)": 79.99537945946282,
        "Satellite Name": "Test1 359",
        "Satellite Number": 359,
        "Semi-Major Axis(m)": 6980739.136638005,
        "Time(s)": 110
    },
    {
        "Altitude(m)": 609325.6355972452,
        "Argument of Periapsis(deg)": 0.0012502735095955685,
        "Eccentricity": 0.0,
        "Inclination(deg)": 60.0,
        "Latitude(deg)": 47.3966798867895,
        "Longitude(deg)": 120.88804541194703,
        "Mean Anomaly(deg)": 121.98677374554197,
        "RAAN(deg)": 79.99495941032308,
        "Satellite Name": "Test1 359",
        "Satellite Number": 359,
        "Semi-Major Axis(m)": 6980739.136638005,
        "Time(s)": 120
    },
    {
        "Altitude(m)": 609229.3277483572,
        "Argument of Periapsis(deg)": 0.0013544629687285324,
        "Eccentricity": 0.0,
        "Inclination(deg)": 60.0,
        "Latitude(deg)": 46.974804083505056,
        "Longitude(deg)": 121.51418434349688,
        "Mean Anomaly(deg)": 122.6068798910038,
        "RAAN(deg)": 79.99453936118334,
        "Satellite Name": "Test1 359",
        "Satellite Number": 359,
        "Semi-Major Axis(m)": 6980739.136638005,
        "Time(s)": 130
    },
    {
        "Altitude(m)": 609132.3092140183,
        "Argument of Periapsis(deg)": 0.0014586524278614966,
        "Eccentricity": 0.0,
        "Inclination(deg)": 60.0,
        "Latitude(deg)": 46.54906512642891,
        "Longitude(deg)": 122.1298677872673,
        "Mean Anomaly(deg)": 123.22698603646562,
        "RAAN(deg)": 79.99411931204361,
        "Satellite Name": "Test1 359",
        "Satellite Number": 359,
        "Semi-Major Axis(m)": 6980739.136638005,
        "Time(s)": 140
    },
    {
        "Altitude(m)": 609034.6388101265,
        "Argument of Periapsis(deg)": 0.0015628418869944607,
        "Eccentricity": 0.0,
        "Inclination(deg)": 60.0,
        "Latitude(deg)": 46.11957747188917,
        "Longitude(deg)": 122.73532049919504,
        "Mean Anomaly(deg)": 123.84709218192745,
        "RAAN(deg)": 79.99369926290386,
        "Satellite Name": "Test1 359",
        "Satellite Number": 359,
        "Semi-Major Axis(m)": 6980739.136638005,
        "Time(s)": 150
    },
    {
        "Altitude(m)": 608936.3758934882,
        "Argument of Periapsis(deg)": 0.0016670313461274247,
        "Eccentricity": 0.0,
        "Inclination(deg)": 60.0,
        "Latitude(deg)": 45.68645221128688,
        "Longitude(deg)": 123.3307665253595,
        "Mean Anomaly(deg)": 124.4671983273893,
        "RAAN(deg)": 79.99327921376411,
        "Satellite Name": "Test1 359",
        "Satellite Number": 359,
        "Semi-Major Axis(m)": 6980739.136638005,
        "Time(s)": 160
    },
    {
        "Altitude(m)": 608837.58033276,
        "Argument of Periapsis(deg)": 0.0017712208052603888,
        "Eccentricity": 0.0,
        "Inclination(deg)": 60.0,
        "Latitude(deg)": 45.2497971442676,
        "Longitude(deg)": 123.91642783539457,
        "Mean Anomaly(deg)": 125.08730447285112,
        "RAAN(deg)": 79.99285916462436,
        "Satellite Name": "Test1 359",
        "Satellite Number": 359,
        "Semi-Major Axis(m)": 6980739.136638005,
        "Time(s)": 170
    },
    {
        "Altitude(m)": 608738.3124790807,
        "Argument of Periapsis(deg)": 0.001875410264393353,
        "Eccentricity": 0.0,
        "Inclination(deg)": 60.0,
        "Latitude(deg)": 44.80971685438486,
        "Longitude(deg)": 124.4925245081102,
        "Mean Anomaly(deg)": 125.70741061831295,
        "RAAN(deg)": 79.99243911548463,
        "Satellite Name": "Test1 359",
        "Satellite Number": 359,
        "Semi-Major Axis(m)": 6980739.136638005,
        "Time(s)": 180
    },
    {
        "Altitude(m)": 608638.6331364651,
        "Argument of Periapsis(deg)": 0.0019795997235263173,
        "Eccentricity": 0.0,
        "Inclination(deg)": 60.0,
        "Latitude(deg)": 44.36631278669533,
        "Longitude(deg)": 125.05927495369542,
        "Mean Anomaly(deg)": 126.32751676377477,
        "RAAN(deg)": 79.99201906634488,
        "Satellite Name": "Test1 359",
        "Satellite Number": 359,
        "Semi-Major Axis(m)": 6980739.136638005,
        "Time(s)": 190
    }
]